PROBA-1                 
1 26958U 01049B   26074.26824051  .00002860  00000+0  18827-3 0  9995
2 26958  97.9639  79.5367 0057253  80.6798 280.0897 15.07067427329470
CUTE-1 (CO-55)          
1 27844U 03031E   26074.25416618  .00000369  00000+0  17886-3 0  9994
2 27844  98.6777  83.9839 0010766  98.1301 262.1099 14.24271187178308
CUBESAT XI-IV (CO-57)   
1 27848U 03031J   26073.56320221  .00000349  00000+0  17224-3 0  9999
2 27848  98.6807  83.0901 0010521 116.0304 244.1959 14.23565240177915
APRIZESAT 4             
1 35684U 09041D   26074.18486408  .00000893  00000+0  11345-3 0  9994
2 35684  98.1476 147.6204 0042073 266.3102  93.3299 14.83720536897427
APRIZESAT 3             
1 35686U 09041F   26073.92859598  .00001833  00000+0  16338-3 0  9993
2 35686  98.1899 222.7300 0062316  19.2064 341.1484 14.95920075902288
PROBA-2                 
1 36037U 09059B   26074.08490448  .00000326  00000+0  86597-4 0  9997
2 36037  98.2435 258.7429 0012630 206.6506 153.4044 14.54795627867840
APRIZESAT 5             
1 37792U 11044E   26073.68813501  .00001607  00000+0  21099-3 0  9995
2 37792  98.2404   4.0947 0051369 308.1061  51.5524 14.80875754784802
APRIZESAT 6             
1 37793U 11044F   26074.25224956  .00000993  00000+0  14735-3 0  9996
2 37793  98.2415 342.8204 0043948  28.0645  89.0263 14.76765607783281
PROBA-V                 
1 39159U 13021A   26074.21805291  .00000091  00000+0  58044-4 0  9995
2 39159  98.3513  57.5014 0005168  57.0586 303.1090 14.23575266667748
APRIZESAT 7             
1 39416U 13066A   26073.82466444  .00001938  00000+0  19787-3 0  9990
2 39416  97.7603  28.4756 0036405 161.8614 198.3912 14.91302923667167
APRIZESAT 8             
1 39425U 13066K   26074.10356517  .00001367  00000+0  15452-3 0  9992
2 39425  97.8125  22.9534 0044790 234.5651 125.1379 14.87441570665682
BUGSAT-1 (TITA)         
1 40014U 14033E   26074.25417299  .00008998  00000+0  48613-3 0  9996
2 40014  98.0425 161.3943 0029534 140.1254 220.2154 15.14583059641611
SAUDISAT 4              
1 40016U 14033G   26074.24428378  .00000795  00000+0  11167-3 0  9998
2 40016  97.7423 223.7097 0045326  20.8803 339.4247 14.79401026632182
APRIZESAT 9             
1 40018U 14033J   26074.26667835  .00001006  00000+0  15494-3 0  9998
2 40018  97.8890 209.8496 0067179 141.4441 219.1594 14.74087585629729
APRIZESAT 10            
1 40019U 14033K   26074.24578057  .00000872  00000+0  14462-3 0  9998
2 40019  97.9487 203.3893 0078279 212.9620 146.6694 14.70763540628440
TECHDEMOSAT-1 (TDS-1)   
1 40076U 14037H   26074.21789654  .00011433  00000+0  67497-3 0  9990
2 40076  98.3779  57.2594 0005190 211.6436 148.4481 15.11705389634027
TECHNOSAT               
1 42829U 17042E   26074.01568472  .00004080  00000+0  29582-3 0  9991
2 42829  97.4142 235.3576 0018982  58.2057 302.1015 15.04330295472546
FLYING LAPTOP           
1 42831U 17042G   26074.31286006  .00003581  00000+0  28713-3 0  9997
2 42831  97.4282 233.7368 0019712  77.9230 282.4202 15.00559780472375
HAWK-A                  
1 43765U 18099H   26074.06286228  .00009197  00000+0  38400-3 0  9998
2 43765  97.4047 127.5569 0034266 255.7360 104.0070 15.23327285398765
HAWK-B                  
1 43794U 18099AN  26074.04080649  .00008397  00000+0  37001-3 0  9994
2 43794  97.4095 127.1397 0031233 273.8059  85.9606 15.21620584398715
HAWK-C                  
1 43799U 18099AT  26074.04796879  .00010710  00000+0  40315-3 0  9992
2 43799  97.4024 128.0095 0040380 257.7060 101.9656 15.26518545399547
SALSAT                  
1 46495U 20068K   26074.23852363  .00010372  00000+0  37867-3 0  9991
2 46495  97.8857  71.6917 0008033 272.6742  87.3577 15.28307413301004
HAWK-2C                 
1 47502U 21006CT  26074.09252179  .00008872  00000+0  27716-3 0  9991
2 47502  97.2413 120.3032 0007549 165.9667 194.1787 15.33377562285073
HAWK-2A                 
1 47505U 21006CW  26074.09596745  .00008589  00000+0  26828-3 0  9992
2 47505  97.2454 120.9288 0007068 168.4172 191.7234 15.33395510285078
HAWK-2B                 
1 47508U 21006CZ  26074.09280606  .00009514  00000+0  29684-3 0  9993
2 47508  97.2329 119.4149 0007736 166.7728 193.3719 15.33396480285074
HAWK-3B                 
1 48931U 21059BE  26074.25221314  .00045829  00000+0  52325-3 0  9998
2 48931  97.6721 262.5973 0004929 315.7658  44.3205 15.62065567263150
HAWK-3C                 
1 48948U 21059BX  26074.25195521  .00044817  00000+0  51169-3 0  9997
2 48948  97.6867 268.1081 0005316 317.3987  42.6857 15.62067911263154
HAWK-3A                 
1 48957U 21059CG  26074.25180002  .00045146  00000+0  51551-3 0  9996
2 48957  97.6802 265.3912 0004981 316.2362  43.8499 15.62065289263158
HAWK-5C                 
1 52754U 22057Y   26073.96133545  .00025797  00000+0  49769-3 0  9990
2 52754  97.6453 227.8913 0005348  59.0772 301.1002 15.47802827211758
HAWK-5B                 
1 52756U 22057AA  26073.96120586  .00026017  00000+0  50193-3 0  9992
2 52756  97.6460 226.2317 0005136  53.3358 306.8363 15.47801927211753
HAWK-5A                 
1 52757U 22057AB  26073.96093052  .00026259  00000+0  50652-3 0  9998
2 52757  97.6458 227.0655 0005627  55.7233 304.4549 15.47803201211755
HAWK-6B                 
1 55324U 23011A   26073.66012707  .00008154  00000+0  35791-3 0  9998
2 55324  40.5092 183.0377 0001546  82.5819 277.5166 15.21983523173430
HAWK-6C                 
1 55326U 23011C   26073.65954497  .00008563  00000+0  37535-3 0  9992
2 55326  40.4879 179.8999 0001814  57.6577 302.4407 15.21986289173448
HAWK-6A                 
1 55327U 23011D   26073.59393055  .00007787  00000+0  34218-3 0  9995
2 55327  40.4978 181.8937 0001498  51.2057 308.8886 15.21981437173435
HAWK-7A                 
1 56191U 23054P   26074.26189882  .00007569  00000+0  29443-3 0  9990
2 56191  97.2831 323.9892 0003880  37.3083 322.8425 15.26294814162695
HAWK-7B                 
1 56193U 23054R   26074.19626710  .00007622  00000+0  29647-3 0  9996
2 56193  97.2863 322.1535 0003390  50.9066 309.2474 15.26293484162689
HAWK-7C                 
1 56200U 23054Y   26074.26170883  .00007340  00000+0  28563-3 0  9991
2 56200  97.2836 323.0167 0003240  41.0099 319.1383 15.26293452162695
